{
  "links" : {
    "next" : "https://api.nasa.gov/neo/rest/v1/feed?start_date=2004-04-16&end_date=2004-04-16&detailed=true&api_key=t0TVs3DtDT2H8Oy2Zy8m2eVrNsAVKAexjcZXUckd",
    "prev" : "https://api.nasa.gov/neo/rest/v1/feed?start_date=2004-04-14&end_date=2004-04-14&detailed=true&api_key=t0TVs3DtDT2H8Oy2Zy8m2eVrNsAVKAexjcZXUckd",
    "self" : "https://api.nasa.gov/neo/rest/v1/feed?start_date=2004-04-15&end_date=2004-04-15&detailed=true&api_key=t0TVs3DtDT2H8Oy2Zy8m2eVrNsAVKAexjcZXUckd"
  },
  "element_count" : 8,
  "near_earth_objects" : {
    "2004-04-15" : [ {
      "links" : {
        "self" : "https://api.nasa.gov/neo/rest/v1/neo/3182184?api_key=t0TVs3DtDT2H8Oy2Zy8m2eVrNsAVKAexjcZXUckd"
      },
      "neo_reference_id" : "3182184",
      "name" : "(2004 JU20)",
      "nasa_jpl_url" : "http://ssd.jpl.nasa.gov/sbdb.cgi?sstr=3182184",
      "absolute_magnitude_h" : 25.3,
      "estimated_diameter" : {
        "kilometers" : {
          "estimated_diameter_min" : 0.0231502122,
          "estimated_diameter_max" : 0.0517654482
        },
        "meters" : {
          "estimated_diameter_min" : 23.150212221,
          "estimated_diameter_max" : 51.7654482198
        },
        "miles" : {
          "estimated_diameter_min" : 0.0143848705,
          "estimated_diameter_max" : 0.0321655483
        },
        "feet" : {
          "estimated_diameter_min" : 75.9521422633,
          "estimated_diameter_max" : 169.8341531374
        }
      },
      "is_potentially_hazardous_asteroid" : false,
      "close_approach_data" : [ {
        "close_approach_date" : "2004-04-15",
        "epoch_date_close_approach" : 1082012400000,
        "relative_velocity" : {
          "kilometers_per_second" : "3.6732820064",
          "kilometers_per_hour" : "13223.8152231097",
          "miles_per_hour" : "8216.7645201594"
        },
        "miss_distance" : {
          "astronomical" : "0.1008246793",
          "lunar" : "39.2207984924",
          "kilometers" : "15083157",
          "miles" : "9372239"
        },
        "orbiting_body" : "Earth"
      } ],
      "orbital_data" : {
        "orbit_id" : "6",
        "orbit_determination_date" : "2017-04-06 09:12:46",
        "orbit_uncertainty" : "9",
        "minimum_orbit_intersection" : ".0984829",
        "jupiter_tisserand_invariant" : "4.508",
        "epoch_osculation" : "2453139.5",
        "eccentricity" : ".2752068125000933",
        "semi_major_axis" : "1.494112204682",
        "inclination" : "5.596565019942163",
        "ascending_node_longitude" : "52.55604884195644",
        "orbital_period" : "667.0728218750538",
        "perihelion_distance" : "1.08292234731398",
        "perihelion_argument" : "138.6153087183991",
        "aphelion_distance" : "1.90530206205002",
        "perihelion_time" : "2453095.061418365428",
        "mean_anomaly" : "23.98222332530047",
        "mean_motion" : ".5396712145880677",
        "equinox" : "J2000"
      }
    }, {
      "links" : {
        "self" : "https://api.nasa.gov/neo/rest/v1/neo/3064315?api_key=t0TVs3DtDT2H8Oy2Zy8m2eVrNsAVKAexjcZXUckd"
      },
      "neo_reference_id" : "3064315",
      "name" : "(1998 XN17)",
      "nasa_jpl_url" : "http://ssd.jpl.nasa.gov/sbdb.cgi?sstr=3064315",
      "absolute_magnitude_h" : 22.8,
      "estimated_diameter" : {
        "kilometers" : {
          "estimated_diameter_min" : 0.0732073989,
          "estimated_diameter_max" : 0.1636967205
        },
        "meters" : {
          "estimated_diameter_min" : 73.2073989347,
          "estimated_diameter_max" : 163.696720474
        },
        "miles" : {
          "estimated_diameter_min" : 0.0454889547,
          "estimated_diameter_max" : 0.1017163949
        },
        "feet" : {
          "estimated_diameter_min" : 240.181762721,
          "estimated_diameter_max" : 537.0627483999
        }
      },
      "is_potentially_hazardous_asteroid" : false,
      "close_approach_data" : [ {
        "close_approach_date" : "2004-04-15",
        "epoch_date_close_approach" : 1082012400000,
        "relative_velocity" : {
          "kilometers_per_second" : "10.6010744134",
          "kilometers_per_hour" : "38163.8678881986",
          "miles_per_hour" : "23713.5433553087"
        },
        "miss_distance" : {
          "astronomical" : "0.1598104735",
          "lunar" : "62.1662712097",
          "kilometers" : "23907306",
          "miles" : "14855311"
        },
        "orbiting_body" : "Earth"
      } ],
      "orbital_data" : {
        "orbit_id" : "13",
        "orbit_determination_date" : "2017-04-06 09:17:35",
        "orbit_uncertainty" : "2",
        "minimum_orbit_intersection" : ".056298",
        "jupiter_tisserand_invariant" : "6.139",
        "epoch_osculation" : "2458000.5",
        "eccentricity" : ".2100459595220524",
        "semi_major_axis" : ".9824514695648709",
        "inclination" : "7.242001269771178",
        "ascending_node_longitude" : "85.92910283522252",
        "orbital_period" : "355.6846202667346",
        "perihelion_distance" : ".7760915079562672",
        "perihelion_argument" : "226.5058230347315",
        "aphelion_distance" : "1.188811431173475",
        "perihelion_time" : "2458163.073388861199",
        "mean_anomaly" : "195.4541730082638",
        "mean_motion" : "1.012132601432216",
        "equinox" : "J2000"
      }
    }, {
      "links" : {
        "self" : "https://api.nasa.gov/neo/rest/v1/neo/3160748?api_key=t0TVs3DtDT2H8Oy2Zy8m2eVrNsAVKAexjcZXUckd"
      },
      "neo_reference_id" : "3160748",
      "name" : "(2003 SW130)",
      "nasa_jpl_url" : "http://ssd.jpl.nasa.gov/sbdb.cgi?sstr=3160748",
      "absolute_magnitude_h" : 29.1,
      "estimated_diameter" : {
        "kilometers" : {
          "estimated_diameter_min" : 0.0040230458,
          "estimated_diameter_max" : 0.0089958039
        },
        "meters" : {
          "estimated_diameter_min" : 4.0230457983,
          "estimated_diameter_max" : 8.9958038817
        },
        "miles" : {
          "estimated_diameter_min" : 0.002499804,
          "estimated_diameter_max" : 0.0055897317
        },
        "feet" : {
          "estimated_diameter_min" : 13.198969577,
          "estimated_diameter_max" : 29.5137932072
        }
      },
      "is_potentially_hazardous_asteroid" : false,
      "close_approach_data" : [ {
        "close_approach_date" : "2004-04-15",
        "epoch_date_close_approach" : 1082012400000,
        "relative_velocity" : {
          "kilometers_per_second" : "13.2093245427",
          "kilometers_per_hour" : "47553.5683537013",
          "miles_per_hour" : "29547.938069554"
        },
        "miss_distance" : {
          "astronomical" : "0.3800160887",
          "lunar" : "147.8262634277",
          "kilometers" : "56849600",
          "miles" : "35324704"
        },
        "orbiting_body" : "Earth"
      } ],
      "orbital_data" : {
        "orbit_id" : "8",
        "orbit_determination_date" : "2017-04-06 09:13:48",
        "orbit_uncertainty" : "6",
        "minimum_orbit_intersection" : ".000786163",
        "jupiter_tisserand_invariant" : "6.671",
        "epoch_osculation" : "2458000.5",
        "eccentricity" : ".3042872619563065",
        "semi_major_axis" : ".8837984709450448",
        "inclination" : "3.669438817754838",
        "ascending_node_longitude" : "176.4091170359373",
        "orbital_period" : "303.4787563423772",
        "perihelion_distance" : ".6148698541000068",
        "perihelion_argument" : "47.7591056089857",
        "aphelion_distance" : "1.152727087790083",
        "perihelion_time" : "2457979.600653171576",
        "mean_anomaly" : "24.79173484467748",
        "mean_motion" : "1.18624448161985",
        "equinox" : "J2000"
      }
    } ]
  }
}